{
  "norad_id": 63024,
  "name": "STARLINK-32803",
  "history": [
    {
      "epoch": "2026-03-28T17:23:22.503264",
      "apogee_km": 484.2096792522061,
      "perigee_km": 481.67766604077315,
      "latitude_deg": -32.32943793092545,
      "longitude_deg": -168.04166304017417,
      "semi_major_axis_km": 6861.08067264649,
      "eccentricity": 0.00018452,
      "inclination_deg": 43.002,
      "raan_deg": 228.3337,
      "arg_perigee_deg": 272.9494,
      "mean_anomaly_deg": 87.1147,
      "mean_motion_rev_day": 15.27615208
    }
  ]
}